{"fetched_at":"2026-07-19T17:31:40.912Z","source":"https://celestrak.org/NORAD/elements/gp.php?NAME=KINEIS&FORMAT=JSON","constellation":"kineis","records":[{"OBJECT_NAME":"KINEIS-1B","OBJECT_ID":"2024-114A","EPOCH":"2026-07-19T05:16:13.306080","CLASSIFICATION_TYPE":"U","MEAN_MOTION":14.80670056,"ECCENTRICITY":0.00026517,"INCLINATION":97.9828,"RA_OF_ASC_NODE":224.2521,"ARG_OF_PERICENTER":29.2877,"MEAN_ANOMALY":330.8484,"EPHEMERIS_TYPE":0,"NORAD_CAT_ID":60079,"ELEMENT_SET_NO":999,"REV_AT_EPOCH":11214,"BSTAR":0.000045462988,"MEAN_MOTION_DOT":0.00000297,"MEAN_MOTION_DDOT":0},{"OBJECT_NAME":"KINEIS-1C","OBJECT_ID":"2024-114C","EPOCH":"2026-07-19T07:41:57.645312","CLASSIFICATION_TYPE":"U","MEAN_MOTION":14.80671941,"ECCENTRICITY":0.00025687,"INCLINATION":97.9842,"RA_OF_ASC_NODE":224.2091,"ARG_OF_PERICENTER":89.7593,"MEAN_ANOMALY":270.3913,"EPHEMERIS_TYPE":0,"NORAD_CAT_ID":60081,"ELEMENT_SET_NO":999,"REV_AT_EPOCH":11213,"BSTAR":0.000046981459,"MEAN_MOTION_DOT":0.00000308,"MEAN_MOTION_DDOT":0},{"OBJECT_NAME":"KINEIS-1D","OBJECT_ID":"2024-114D","EPOCH":"2026-07-19T07:19:35.954400","CLASSIFICATION_TYPE":"U","MEAN_MOTION":14.76365377,"ECCENTRICITY":0.00029871,"INCLINATION":97.9879,"RA_OF_ASC_NODE":220.0909,"ARG_OF_PERICENTER":92.0693,"MEAN_ANOMALY":268.0859,"EPHEMERIS_TYPE":0,"NORAD_CAT_ID":60082,"ELEMENT_SET_NO":999,"REV_AT_EPOCH":11186,"BSTAR":0.000045796958,"MEAN_MOTION_DOT":0.00000267,"MEAN_MOTION_DDOT":0},{"OBJECT_NAME":"KINEIS-1E","OBJECT_ID":"2024-114E","EPOCH":"2026-07-19T06:30:13.269024","CLASSIFICATION_TYPE":"U","MEAN_MOTION":14.80697611,"ECCENTRICITY":0.00042181,"INCLINATION":97.8945,"RA_OF_ASC_NODE":223.1837,"ARG_OF_PERICENTER":101.3512,"MEAN_ANOMALY":258.8175,"EPHEMERIS_TYPE":0,"NORAD_CAT_ID":60083,"ELEMENT_SET_NO":999,"REV_AT_EPOCH":11213,"BSTAR":0.000051090378,"MEAN_MOTION_DOT":0.00000341,"MEAN_MOTION_DDOT":0},{"OBJECT_NAME":"KINEIS-1A","OBJECT_ID":"2024-114F","EPOCH":"2026-07-19T07:18:25.265376","CLASSIFICATION_TYPE":"U","MEAN_MOTION":14.80685458,"ECCENTRICITY":0.00051798,"INCLINATION":97.8918,"RA_OF_ASC_NODE":223.3089,"ARG_OF_PERICENTER":52.4275,"MEAN_ANOMALY":307.7407,"EPHEMERIS_TYPE":0,"NORAD_CAT_ID":60084,"ELEMENT_SET_NO":999,"REV_AT_EPOCH":11214,"BSTAR":0.000047093378,"MEAN_MOTION_DOT":0.0000031,"MEAN_MOTION_DDOT":0},{"OBJECT_NAME":"KINEIS-3C","OBJECT_ID":"2024-172A","EPOCH":"2026-07-19T05:14:33.061344","CLASSIFICATION_TYPE":"U","MEAN_MOTION":14.72297028,"ECCENTRICITY":0.00025493,"INCLINATION":98.0433,"RA_OF_ASC_NODE":289.7777,"ARG_OF_PERICENTER":76.4409,"MEAN_ANOMALY":283.7083,"EPHEMERIS_TYPE":0,"NORAD_CAT_ID":61220,"ELEMENT_SET_NO":999,"REV_AT_EPOCH":9778,"BSTAR":0.00014065086,"MEAN_MOTION_DOT":0.00000839,"MEAN_MOTION_DDOT":0},{"OBJECT_NAME":"KINEIS-3D","OBJECT_ID":"2024-172B","EPOCH":"2026-07-19T05:04:52.417056","CLASSIFICATION_TYPE":"U","MEAN_MOTION":14.72293825,"ECCENTRICITY":0.00023294,"INCLINATION":98.0435,"RA_OF_ASC_NODE":289.781,"ARG_OF_PERICENTER":76.7926,"MEAN_ANOMALY":283.3541,"EPHEMERIS_TYPE":0,"NORAD_CAT_ID":61221,"ELEMENT_SET_NO":999,"REV_AT_EPOCH":9806,"BSTAR":0.000083638058,"MEAN_MOTION_DOT":0.00000479,"MEAN_MOTION_DDOT":0},{"OBJECT_NAME":"KINEIS-3E","OBJECT_ID":"2024-172C","EPOCH":"2026-07-19T04:40:18.840864","CLASSIFICATION_TYPE":"U","MEAN_MOTION":14.72283519,"ECCENTRICITY":0.00016954,"INCLINATION":98.0428,"RA_OF_ASC_NODE":289.7455,"ARG_OF_PERICENTER":86.5071,"MEAN_ANOMALY":273.633,"EPHEMERIS_TYPE":0,"NORAD_CAT_ID":61222,"ELEMENT_SET_NO":999,"REV_AT_EPOCH":9806,"BSTAR":0.00013739105,"MEAN_MOTION_DOT":0.00000818,"MEAN_MOTION_DDOT":0},{"OBJECT_NAME":"KINEIS-3A","OBJECT_ID":"2024-172D","EPOCH":"2026-07-19T05:54:12.908736","CLASSIFICATION_TYPE":"U","MEAN_MOTION":14.72316882,"ECCENTRICITY":0.00018981,"INCLINATION":98.0424,"RA_OF_ASC_NODE":289.8944,"ARG_OF_PERICENTER":33.7006,"MEAN_ANOMALY":326.4321,"EPHEMERIS_TYPE":0,"NORAD_CAT_ID":61223,"ELEMENT_SET_NO":999,"REV_AT_EPOCH":9749,"BSTAR":0.00013582087,"MEAN_MOTION_DOT":0.00000809,"MEAN_MOTION_DDOT":0},{"OBJECT_NAME":"KINEIS-3B","OBJECT_ID":"2024-172E","EPOCH":"2026-07-19T05:29:15.116352","CLASSIFICATION_TYPE":"U","MEAN_MOTION":14.72303075,"ECCENTRICITY":0.00013032,"INCLINATION":98.0419,"RA_OF_ASC_NODE":289.8992,"ARG_OF_PERICENTER":18.3279,"MEAN_ANOMALY":341.7975,"EPHEMERIS_TYPE":0,"NORAD_CAT_ID":61224,"ELEMENT_SET_NO":999,"REV_AT_EPOCH":9806,"BSTAR":0.00013654236,"MEAN_MOTION_DOT":0.00000813,"MEAN_MOTION_DDOT":0},{"OBJECT_NAME":"KINEIS-5C","OBJECT_ID":"2024-219A","EPOCH":"2026-07-19T06:34:14.699136","CLASSIFICATION_TYPE":"U","MEAN_MOTION":14.72317426,"ECCENTRICITY":0.00044791,"INCLINATION":97.9073,"RA_OF_ASC_NODE":358.2401,"ARG_OF_PERICENTER":161.4658,"MEAN_ANOMALY":198.6713,"EPHEMERIS_TYPE":0,"NORAD_CAT_ID":62081,"ELEMENT_SET_NO":999,"REV_AT_EPOCH":8847,"BSTAR":0.000053591013,"MEAN_MOTION_DOT":0.0000029,"MEAN_MOTION_DDOT":0},{"OBJECT_NAME":"KINEIS-5D","OBJECT_ID":"2024-219B","EPOCH":"2026-07-19T07:11:42.463392","CLASSIFICATION_TYPE":"U","MEAN_MOTION":14.72497542,"ECCENTRICITY":0.00055948,"INCLINATION":97.9184,"RA_OF_ASC_NODE":358.3401,"ARG_OF_PERICENTER":155.9525,"MEAN_ANOMALY":204.1945,"EPHEMERIS_TYPE":0,"NORAD_CAT_ID":62082,"ELEMENT_SET_NO":999,"REV_AT_EPOCH":8848,"BSTAR":0.000074333885,"MEAN_MOTION_DOT":0.00000423,"MEAN_MOTION_DDOT":0},{"OBJECT_NAME":"KINEIS-5E","OBJECT_ID":"2024-219C","EPOCH":"2026-07-19T06:00:17.853696","CLASSIFICATION_TYPE":"U","MEAN_MOTION":14.72301856,"ECCENTRICITY":0.00070618,"INCLINATION":97.9029,"RA_OF_ASC_NODE":358.3093,"ARG_OF_PERICENTER":152.7923,"MEAN_ANOMALY":207.3655,"EPHEMERIS_TYPE":0,"NORAD_CAT_ID":62083,"ELEMENT_SET_NO":999,"REV_AT_EPOCH":8848,"BSTAR":0.0000505981,"MEAN_MOTION_DOT":0.00000271,"MEAN_MOTION_DDOT":0},{"OBJECT_NAME":"KINEIS-5A","OBJECT_ID":"2024-219D","EPOCH":"2026-07-19T05:29:02.554656","CLASSIFICATION_TYPE":"U","MEAN_MOTION":14.72272718,"ECCENTRICITY":0.00041218,"INCLINATION":97.897,"RA_OF_ASC_NODE":358.5651,"ARG_OF_PERICENTER":186.3449,"MEAN_ANOMALY":173.7707,"EPHEMERIS_TYPE":0,"NORAD_CAT_ID":62084,"ELEMENT_SET_NO":999,"REV_AT_EPOCH":8848,"BSTAR":0.000075213977,"MEAN_MOTION_DOT":0.00000427,"MEAN_MOTION_DDOT":0},{"OBJECT_NAME":"KINEIS-5B","OBJECT_ID":"2024-219E","EPOCH":"2026-07-19T06:21:28.628352","CLASSIFICATION_TYPE":"U","MEAN_MOTION":14.78390004,"ECCENTRICITY":0.00027282,"INCLINATION":98.0094,"RA_OF_ASC_NODE":3.9187,"ARG_OF_PERICENTER":137.603,"MEAN_ANOMALY":222.5392,"EPHEMERIS_TYPE":0,"NORAD_CAT_ID":62085,"ELEMENT_SET_NO":999,"REV_AT_EPOCH":8874,"BSTAR":0.000075003115,"MEAN_MOTION_DOT":0.00000494,"MEAN_MOTION_DDOT":0},{"OBJECT_NAME":"KINEIS-2C","OBJECT_ID":"2025-028B","EPOCH":"2026-07-19T04:06:20.834208","CLASSIFICATION_TYPE":"U","MEAN_MOTION":14.73435342,"ECCENTRICITY":0.00045238,"INCLINATION":98.1227,"RA_OF_ASC_NODE":254.5984,"ARG_OF_PERICENTER":149.2193,"MEAN_ANOMALY":210.9281,"EPHEMERIS_TYPE":0,"NORAD_CAT_ID":62929,"ELEMENT_SET_NO":999,"REV_AT_EPOCH":7732,"BSTAR":0.00011533709,"MEAN_MOTION_DOT":0.00000697,"MEAN_MOTION_DDOT":0}]}
