KINEIS-1B               
1 60079U 24114A   26200.21959845  .00000297  00000+0  45463-4 0  9990
2 60079  97.9828 224.2521 0002651  29.2877 330.8484 14.80670056112140
KINEIS-1C               
1 60081U 24114C   26200.32080608  .00000308  00000+0  46981-4 0  9996
2 60081  97.9842 224.2091 0002568  89.7593 270.3913 14.80671941112132
KINEIS-1D               
1 60082U 24114D   26200.30527725  .00000267  00000+0  45797-4 0  9999
2 60082  97.9879 220.0909 0002987  92.0693 268.0859 14.76365377111868
KINEIS-1E               
1 60083U 24114E   26200.27098691  .00000341  00000+0  51090-4 0  9997
2 60083  97.8945 223.1837 0004218 101.3512 258.8175 14.80697611112132
KINEIS-1A               
1 60084U 24114F   26200.30445909  .00000310  00000+0  47093-4 0  9994
2 60084  97.8918 223.3089 0005179  52.4275 307.7407 14.80685458112142
KINEIS-3C               
1 61220U 24172A   26200.21843821  .00000839  00000+0  14065-3 0  9994
2 61220  98.0433 289.7777 0002549  76.4409 283.7083 14.72297028 97781
KINEIS-3D               
1 61221U 24172B   26200.21171779  .00000479  00000+0  83638-4 0  9994
2 61221  98.0435 289.7810 0002329  76.7926 283.3541 14.72293825 98063
KINEIS-3E               
1 61222U 24172C   26200.19466251  .00000818  00000+0  13739-3 0  9995
2 61222  98.0428 289.7455 0001695  86.5071 273.6330 14.72283519 98063
KINEIS-3A               
1 61223U 24172D   26200.24598274  .00000809  00000+0  13582-3 0  9999
2 61223  98.0424 289.8944 0001898  33.7006 326.4321 14.72316882 97494
KINEIS-3B               
1 61224U 24172E   26200.22864718  .00000813  00000+0  13654-3 0  9992
2 61224  98.0419 289.8992 0001303  18.3279 341.7975 14.72303075 98063
KINEIS-5C               
1 62081U 24219A   26200.27378124  .00000290  00000+0  53591-4 0  9996
2 62081  97.9073 358.2401 0004479 161.4658 198.6713 14.72317426 88471
KINEIS-5D               
1 62082U 24219B   26200.29979703  .00000423  00000+0  74334-4 0  9995
2 62082  97.9184 358.3401 0005594 155.9525 204.1945 14.72497542 88485
KINEIS-5E               
1 62083U 24219C   26200.25020664  .00000271  00000+0  50598-4 0  9992
2 62083  97.9029 358.3093 0007061 152.7923 207.3655 14.72301856 88484
KINEIS-5A               
1 62084U 24219D   26200.22850179  .00000427  00000+0  75214-4 0  9997
2 62084  97.8970 358.5651 0004121 186.3449 173.7707 14.72272718 88489
KINEIS-5B               
1 62085U 24219E   26200.26491468  .00000494  00000+0  75003-4 0  9994
2 62085  98.0094   3.9187 0002728 137.6030 222.5392 14.78390004 88748
KINEIS-2C               
1 62929U 25028B   26200.17107447  .00000697  00000+0  11534-3 0  9994
2 62929  98.1227 254.5984 0004523 149.2193 210.9281 14.73435342 77327
